#aV2015  9 12  0  0  0.00000000     288 DD+AD WGS84 FIT  NGA
## 1861 518400.00000000   300.00000000 57277 0.0000000000000
+   31     1  2  3  4  5  6  7  8  9 11 12 13 14 15 16 17 18
+         19 20 21 22 23 24 25 26 27 28 29 30 31 32  0  0  0
+          0  0  0  0  0  0  0  0  0  0  0  0  0  0  0  0  0
+          0  0  0  0  0  0  0  0  0  0  0  0  0  0  0  0  0
+          0  0  0  0  0  0  0  0  0  0  0  0  0  0  0  0  0
++         2  2  2  2  2  2  2  2  2  2  2  2  2  2  2  2  2
++         2  2  2  2  2  2  2  2  2  2  2  2  2  2  0  0  0
++         0  0  0  0  0  0  0  0  0  0  0  0  0  0  0  0  0
++         0  0  0  0  0  0  0  0  0  0  0  0  0  0  0  0  0
++         0  0  0  0  0  0  0  0  0  0  0  0  0  0  0  0  0
%c cc cc ccc ccc cccc cccc cccc cccc ccccc ccccc ccccc ccccc
%c cc cc ccc ccc cccc cccc cccc cccc ccccc ccccc ccccc ccccc
%f  0.0000000  0.000000000  0.00000000000  0.000000000000000
%f  0.0000000  0.000000000  0.00000000000  0.000000000000000
%i    0    0    0    0      0      0      0      0         0
%i    0    0    0    0      0      0      0      0         0
/*      NGA, ST. LOUIS,MO.                                  
/*   EPHEMERIS COMPUTED FROM  1 DAYS OF DATA                
/*   EPOCHA SMOOTHER                                       
/* CCCCCCCCCCCCCCCCCCCCCCCCCCCCCCCCCCCCCCCCCCCCCCCCCCCCCCCCC
*  2015  9 12  7 10  0.00000000
P  1 -22646.008430 -13908.686513  -2315.986855      0.343875                    
V  1   3712.423822   -923.188497 -31491.395685      0.006824                    
P  2   4936.398948  18055.163505  19382.264270    588.522297                    
V  2 -21902.335033  -9218.527082  14016.366193      0.016536                    
P  3 -13176.550519 -14461.368596  17961.309978     20.756182                    
V  3    703.461611 -22848.178501 -17913.138312      0.008912                    
P  4 -16937.992622 -17580.542424 -11121.434514    -19.730540                    
V  4  13316.873850   3689.978262 -26699.306804     -0.041814                    
P  5   2316.058557  26316.522515  -1430.972835   -196.385204                    
V  5  -3332.382863   1927.923877  31499.101308      0.040712                    
P  6  -8095.730551  12867.286492  21775.832449     56.435531                    
V  6 -24445.030484 -12922.815135  -1457.482285      0.073895                    
P  7 -23680.863465  -4062.236059 -11621.430742    484.581902                    
V  7 -11988.127144  -8870.068508  26861.771227      0.017898                    
P  8  -9756.952643 -11770.421760 -21673.554113     -4.974667                    
V  8  23172.349719 -15048.668080  -2268.571756     -0.013411                    
P  9 -23430.130842   5605.304933  11198.609465     -9.704208                    
V  9  10624.944356  -9797.194335  27104.580824      0.014501                    
P 11 -21740.882978 -11522.527734 -10667.618278   -603.695190                    
V 11  13309.022919  -2276.082661 -25919.058693     -0.023496                    
P 12  10775.275989  17692.942182  16638.089228    327.356313                    
V 12  -1310.043750  21172.937348 -21326.889585      0.034457                    
P 13  -1711.433020  16598.137890 -20822.449797   -148.473114                    
V 13 -23770.573476  10742.363154  10475.362934     -0.029882                    
P 14  21362.086788 -15000.006710   4688.985993     35.307579                    
V 14   6272.624439   -252.606126 -31213.428340     -0.025942                    
P 15  11331.524234  11347.372722 -21290.195348   -271.133964                    
V 15 -21844.572822  15701.444322  -2942.754733     -0.020484                    
P 16   -165.299417 -26327.081841  -1315.514991    -87.446942                    
V 16   2206.843858  -1526.486070  32598.865998      0.039745                    
P 17 -20448.567785  15959.952043   5449.450604   -187.420906                    
V 17  -6935.520995   1100.169561 -31163.923707     -0.012626                    
P 18  15183.489179  -5361.106447 -20583.832767    433.335878                    
V 18   2610.514404  27377.225809  -5362.859221      0.032591                    
P 19 -15474.113030  -7861.830602 -20465.669747   -519.956061                    
V 19  22260.491781 -12074.165240 -11899.727232     -0.006248                    
P 20  13478.860348  17225.469644 -15163.810122    354.610774                    
V 20   -502.948128  19311.298722  21789.474456      0.030674                    
P 21  22857.263448    642.951710 -13074.948031   -479.095500                    
V 21  14559.551007  10462.417475  24315.833747     -0.028046                    
P 22  10303.704021 -18923.106065 -15180.107967    390.544439                    
V 22   4204.479281  19653.547142 -21487.963850      0.037087                    
P 23 -17052.934419  -6052.834085  19746.934194   -132.725749                    
V 23  20269.449343 -14031.821859  12881.408168     -0.022122                    
P 24  21526.599897  14865.992888  -5082.779366     -4.540868                    
V 24  -6999.733721   -304.562818 -30585.931453     -0.006722                    
P 25  14736.627291   3936.243424  21660.569645    -37.640337                    
V 25    789.740565  27660.135850  -5380.284249     -0.051165                    
P 26   5281.003141 -24381.943007   9102.448501    -50.592363                    
V 26   3081.546428  11440.165239  28848.835494     -0.107098                    
P 27   3281.371721 -17881.206205 -19347.860877     19.060962                    
V 27  21361.853481 -12121.652125  14963.584200      0.029549                    
P 28 -11965.814047  15289.360571 -17464.477712    466.995693                    
V 28   -632.670336 -23428.506833 -19475.152542      0.025026                    
P 29  22887.196193  -2507.050166  13220.324976    633.667246                    
V 29 -13679.855139   9869.611014  25614.847897      0.023500                    
P 30 -17652.294662   5045.079893 -19225.129074     23.030984                    
V 30 -20009.238989 -14025.942431  14610.910513      0.066672                    
P 31   8021.259056 -12673.977117  22052.565060    303.151564                    
V 31  24082.479377  13575.666223   -633.818753     -0.013786                    
P 32  -5648.470423 -24540.576858   9215.677670    -45.817612                    
V 32   2987.113819 -11508.675690 -28141.624576      0.110397                    
EOF
